[{"OBJECT_NAME":"TIANQI-30","OBJECT_ID":"2024-170B","EPOCH":"2026-03-09T21:12:35.925696","MEAN_MOTION":13.99108215,"ECCENTRICITY":0.00073562,"INCLINATION":44.8573,"RA_OF_ASC_NODE":219.7467,"ARG_OF_PERICENTER":348.864,"MEAN_ANOMALY":11.2027,"EPHEMERIS_TYPE":0,"CLASSIFICATION_TYPE":"U","NORAD_CAT_ID":61196,"ELEMENT_SET_NO":999,"REV_AT_EPOCH":7514,"BSTAR":0.00015101547,"MEAN_MOTION_DOT":9.2e-7,"MEAN_MOTION_DDOT":0},{"OBJECT_NAME":"FREGAT DEB","OBJECT_ID":"2011-037AB","EPOCH":"2026-03-09T00:44:47.826240","MEAN_MOTION":13.5498978,"ECCENTRICITY":0.08327263,"INCLINATION":51.2024,"RA_OF_ASC_NODE":351.4028,"ARG_OF_PERICENTER":105.3557,"MEAN_ANOMALY":264.0839,"EPHEMERIS_TYPE":0,"CLASSIFICATION_TYPE":"U","NORAD_CAT_ID":45635,"ELEMENT_SET_NO":999,"REV_AT_EPOCH":24756,"BSTAR":0.012231007,"MEAN_MOTION_DOT":0.00094296,"MEAN_MOTION_DDOT":0}]
